[
    {
        "Altitude(m)": 559487.7292103489,
        "Argument of Periapsis(deg)": 0.006622991110713501,
        "Eccentricity": 0.0,
        "Inclination(deg)": 53.0,
        "Latitude(deg)": 51.347233505543215,
        "Longitude(deg)": 33.784320764616055,
        "Mean Anomaly(deg)": 77.36429286757759,
        "RAAN(deg)": 64.99014336852801,
        "Satellite Name": "Starlink Shell 1 290",
        "Satellite Number": 290,
        "Semi-Major Axis(m)": 6931778.249405717,
        "Time(s)": 190
    },
    {
        "Altitude(m)": 559526.8814561964,
        "Argument of Periapsis(deg)": 0.0069715695902247375,
        "Eccentricity": 0.0,
        "Inclination(deg)": 53.0,
        "Latitude(deg)": 51.518210441656365,
        "Longitude(deg)": 34.70780994453331,
        "Mean Anomaly(deg)": 77.9911240711343,
        "RAAN(deg)": 64.98962459845053,
        "Satellite Name": "Starlink Shell 1 290",
        "Satellite Number": 290,
        "Semi-Major Axis(m)": 6931778.249405717,
        "Time(s)": 200
    },
    {
        "Altitude(m)": 559564.1886830779,
        "Argument of Periapsis(deg)": 0.007320148069735974,
        "Eccentricity": 0.0,
        "Inclination(deg)": 53.0,
        "Latitude(deg)": 51.681193408633696,
        "Longitude(deg)": 35.63837504272282,
        "Mean Anomaly(deg)": 78.617955274691,
        "RAAN(deg)": 64.98910582837307,
        "Satellite Name": "Starlink Shell 1 290",
        "Satellite Number": 290,
        "Semi-Major Axis(m)": 6931778.249405717,
        "Time(s)": 210
    },
    {
        "Altitude(m)": 559599.6284033918,
        "Argument of Periapsis(deg)": 0.007668726549247212,
        "Eccentricity": 0.0,
        "Inclination(deg)": 53.0,
        "Latitude(deg)": 51.83607875236858,
        "Longitude(deg)": 36.57576318959114,
        "Mean Anomaly(deg)": 79.24478647824773,
        "RAAN(deg)": 64.9885870582956,
        "Satellite Name": "Starlink Shell 1 290",
        "Satellite Number": 290,
        "Semi-Major Axis(m)": 6931778.249405717,
        "Time(s)": 220
    },
    {
        "Altitude(m)": 559633.1792721454,
        "Argument of Periapsis(deg)": 0.00801730502875845,
        "Eccentricity": 0.0,
        "Inclination(deg)": 53.0,
        "Latitude(deg)": 51.982766335946756,
        "Longitude(deg)": 37.51970531074162,
        "Mean Anomaly(deg)": 79.87161768180444,
        "RAAN(deg)": 64.98806828821812,
        "Satellite Name": "Starlink Shell 1 290",
        "Satellite Number": 290,
        "Semi-Major Axis(m)": 6931778.249405717,
        "Time(s)": 230
    },
    {
        "Altitude(m)": 559664.8210974076,
        "Argument of Periapsis(deg)": 0.008365883508269684,
        "Eccentricity": 0.0,
        "Inclination(deg)": 53.0,
        "Latitude(deg)": 52.12115982537058,
        "Longitude(deg)": 38.469916870378526,
        "Mean Anomaly(deg)": 80.49844888536116,
        "RAAN(deg)": 64.98754951814065,
        "Satellite Name": "Starlink Shell 1 290",
        "Satellite Number": 290,
        "Semi-Major Axis(m)": 6931778.249405717,
        "Time(s)": 240
    },
    {
        "Altitude(m)": 559694.5348501502,
        "Argument of Periapsis(deg)": 0.008714461987780921,
        "Eccentricity": 0.0,
        "Inclination(deg)": 53.0,
        "Latitude(deg)": 52.25116697238022,
        "Longitude(deg)": 39.42609718647968,
        "Mean Anomaly(deg)": 81.12528008891788,
        "RAAN(deg)": 64.98703074806318,
        "Satellite Name": "Starlink Shell 1 290",
        "Satellite Number": 290,
        "Semi-Major Axis(m)": 6931778.249405717,
        "Time(s)": 250
    },
    {
        "Altitude(m)": 559722.3026735401,
        "Argument of Periapsis(deg)": 0.009063040467292158,
        "Eccentricity": 0.0,
        "Inclination(deg)": 53.0,
        "Latitude(deg)": 52.37269989263394,
        "Longitude(deg)": 40.38793034511439,
        "Mean Anomaly(deg)": 81.75211129247458,
        "RAAN(deg)": 64.9865119779857,
        "Satellite Name": "Starlink Shell 1 290",
        "Satellite Number": 290,
        "Semi-Major Axis(m)": 6931778.249405717,
        "Time(s)": 260
    },
    {
        "Altitude(m)": 559748.1078916865,
        "Argument of Periapsis(deg)": 0.009411618946803396,
        "Eccentricity": 0.0,
        "Inclination(deg)": 53.0,
        "Latitude(deg)": 52.485675337525805,
        "Longitude(deg)": 41.35508620249562,
        "Mean Anomaly(deg)": 82.37894249603133,
        "RAAN(deg)": 64.98599320790824,
        "Satellite Name": "Starlink Shell 1 290",
        "Satellite Number": 290,
        "Semi-Major Axis(m)": 6931778.249405717,
        "Time(s)": 270
    },
    {
        "Altitude(m)": 559771.9350177231,
        "Argument of Periapsis(deg)": 0.009760197426314633,
        "Eccentricity": 0.0,
        "Inclination(deg)": 53.0,
        "Latitude(deg)": 52.59001495766612,
        "Longitude(deg)": 42.327219960636874,
        "Mean Anomaly(deg)": 83.00577369958803,
        "RAAN(deg)": 64.98547443783076,
        "Satellite Name": "Starlink Shell 1 290",
        "Satellite Number": 290,
        "Semi-Major Axis(m)": 6931778.249405717,
        "Time(s)": 280
    },
    {
        "Altitude(m)": 559793.769761398,
        "Argument of Periapsis(deg)": 0.01010877590582587,
        "Eccentricity": 0.0,
        "Inclination(deg)": 53.0,
        "Latitude(deg)": 52.68564555643336,
        "Longitude(deg)": 43.30397334347277,
        "Mean Anomaly(deg)": 83.63260490314474,
        "RAAN(deg)": 64.98495566775328,
        "Satellite Name": "Starlink Shell 1 290",
        "Satellite Number": 290,
        "Semi-Major Axis(m)": 6931778.249405717,
        "Time(s)": 290
    },
    {
        "Altitude(m)": 559813.5990360363,
        "Argument of Periapsis(deg)": 0.010457354385337106,
        "Eccentricity": 0.0,
        "Inclination(deg)": 53.0,
        "Latitude(deg)": 52.77249933160597,
        "Longitude(deg)": 44.28497585741542,
        "Mean Anomaly(deg)": 84.25943610670144,
        "RAAN(deg)": 64.98443689767582,
        "Satellite Name": "Starlink Shell 1 290",
        "Satellite Number": 290,
        "Semi-Major Axis(m)": 6931778.249405717,
        "Time(s)": 300
    },
    {
        "Altitude(m)": 559831.410964896,
        "Argument of Periapsis(deg)": 0.010805932864848343,
        "Eccentricity": 0.0,
        "Inclination(deg)": 53.0,
        "Latitude(deg)": 52.85051410336654,
        "Longitude(deg)": 45.26984462145277,
        "Mean Anomaly(deg)": 84.88626731025815,
        "RAAN(deg)": 64.98391812759834,
        "Satellite Name": "Starlink Shell 1 290",
        "Satellite Number": 290,
        "Semi-Major Axis(m)": 6931778.249405717,
        "Time(s)": 310
    },
    {
        "Altitude(m)": 559847.1948869779,
        "Argument of Periapsis(deg)": 0.01115451134435958,
        "Eccentricity": 0.0,
        "Inclination(deg)": 53.0,
        "Latitude(deg)": 52.919633526943315,
        "Longitude(deg)": 46.258185788862384,
        "Mean Anomaly(deg)": 85.51309851381488,
        "RAAN(deg)": 64.98339935752087,
        "Satellite Name": "Starlink Shell 1 290",
        "Satellite Number": 290,
        "Semi-Major Axis(m)": 6931778.249405717,
        "Time(s)": 320
    },
    {
        "Altitude(m)": 559860.9413622048,
        "Argument of Periapsis(deg)": 0.011503089823870818,
        "Eccentricity": 0.0,
        "Inclination(deg)": 53.0,
        "Latitude(deg)": 52.97980728823672,
        "Longitude(deg)": 47.24959604315919,
        "Mean Anomaly(deg)": 86.1399297173716,
        "RAAN(deg)": 64.9828805874434,
        "Satellite Name": "Starlink Shell 1 290",
        "Satellite Number": 290,
        "Semi-Major Axis(m)": 6931778.249405717,
        "Time(s)": 330
    },
    {
        "Altitude(m)": 559872.6421760207,
        "Argument of Periapsis(deg)": 0.011851668303382053,
        "Eccentricity": 0.0,
        "Inclination(deg)": 53.0,
        "Latitude(deg)": 53.0309912808768,
        "Longitude(deg)": 48.243662649986575,
        "Mean Anomaly(deg)": 86.7667609209283,
        "RAAN(deg)": 64.98236181736593,
        "Satellite Name": "Starlink Shell 1 290",
        "Satellite Number": 290,
        "Semi-Major Axis(m)": 6931778.249405717,
        "Time(s)": 340
    },
    {
        "Altitude(m)": 559882.2903433866,
        "Argument of Periapsis(deg)": 0.012200246782893292,
        "Eccentricity": 0.0,
        "Inclination(deg)": 53.0,
        "Latitude(deg)": 53.07314776328417,
        "Longitude(deg)": 49.23996508442341,
        "Mean Anomaly(deg)": 87.39359212448502,
        "RAAN(deg)": 64.98184304728845,
        "Satellite Name": "Starlink Shell 1 290",
        "Satellite Number": 290,
        "Semi-Major Axis(m)": 6931778.249405717,
        "Time(s)": 350
    },
    {
        "Altitude(m)": 559889.8801121869,
        "Argument of Periapsis(deg)": 0.012548825262404526,
        "Eccentricity": 0.0,
        "Inclination(deg)": 53.0,
        "Latitude(deg)": 53.10624549443969,
        "Longitude(deg)": 50.23807671374717,
        "Mean Anomaly(deg)": 88.02042332804174,
        "RAAN(deg)": 64.98132427721099,
        "Satellite Name": "Starlink Shell 1 290",
        "Satellite Number": 290,
        "Semi-Major Axis(m)": 6931778.249405717,
        "Time(s)": 360
    },
    {
        "Altitude(m)": 559895.4069660115,
        "Argument of Periapsis(deg)": 0.012897403741915765,
        "Eccentricity": 0.0,
        "Inclination(deg)": 53.0,
        "Latitude(deg)": 53.13025984722858,
        "Longitude(deg)": 51.237565014967814,
        "Mean Anomaly(deg)": 88.64725453159846,
        "RAAN(deg)": 64.98080550713351,
        "Satellite Name": "Starlink Shell 1 290",
        "Satellite Number": 290,
        "Semi-Major Axis(m)": 6931778.249405717,
        "Time(s)": 370
    }
]